[{"OBJECT_NAME":"STARLINK-1612","OBJECT_ID":"2020-057AZ","EPOCH":"2026-03-10T00:00:02.999808","MEAN_MOTION":15.81024869,"ECCENTRICITY":0.00039603,"INCLINATION":53.0377,"RA_OF_ASC_NODE":210.2919,"ARG_OF_PERICENTER":268.4392,"MEAN_ANOMALY":276.0731,"EPHEMERIS_TYPE":0,"CLASSIFICATION_TYPE":"U","NORAD_CAT_ID":46164,"ELEMENT_SET_NO":999,"REV_AT_EPOCH":587,"BSTAR":0.00088576983,"MEAN_MOTION_DOT":0.00179128,"MEAN_MOTION_DDOT":0},{"OBJECT_NAME":"STARLINK-36770","OBJECT_ID":"2026-034W","EPOCH":"2026-03-09T18:41:54.343680","MEAN_MOTION":15.80975939,"ECCENTRICITY":5.69e-5,"INCLINATION":53.1595,"RA_OF_ASC_NODE":210.7213,"ARG_OF_PERICENTER":75.5515,"MEAN_ANOMALY":284.5571,"EPHEMERIS_TYPE":0,"CLASSIFICATION_TYPE":"U","NORAD_CAT_ID":67870,"ELEMENT_SET_NO":999,"REV_AT_EPOCH":395,"BSTAR":0.0015898968,"MEAN_MOTION_DOT":0.00326825,"MEAN_MOTION_DDOT":0}]
